[{"OBJECT_NAME":"STARLINK-3233","OBJECT_ID":"2021-115Y","EPOCH":"2026-03-09T12:19:01.294752","MEAN_MOTION":15.0883373,"ECCENTRICITY":0.00012803,"INCLINATION":53.2174,"RA_OF_ASC_NODE":149.9127,"ARG_OF_PERICENTER":94.8594,"MEAN_ANOMALY":265.2545,"EPHEMERIS_TYPE":0,"CLASSIFICATION_TYPE":"U","NORAD_CAT_ID":49746,"ELEMENT_SET_NO":999,"REV_AT_EPOCH":23550,"BSTAR":4.1853167e-5,"MEAN_MOTION_DOT":3.78e-6,"MEAN_MOTION_DDOT":0},{"OBJECT_NAME":"CZ-6A DEB","OBJECT_ID":"2022-151ZP","EPOCH":"2026-03-09T04:30:54.238464","MEAN_MOTION":15.16398418,"ECCENTRICITY":0.00295026,"INCLINATION":98.6165,"RA_OF_ASC_NODE":143.0832,"ARG_OF_PERICENTER":204.3397,"MEAN_ANOMALY":155.6441,"EPHEMERIS_TYPE":0,"CLASSIFICATION_TYPE":"U","NORAD_CAT_ID":55867,"ELEMENT_SET_NO":999,"REV_AT_EPOCH":16441,"BSTAR":0.0090941605,"MEAN_MOTION_DOT":0.00182799,"MEAN_MOTION_DDOT":0}]
